{
  "type": "FeatureCollection",
  "features": [
    {
      "type": "Feature",
      "properties": {
        "norad_id": 33886,
        "name": "IRIDIUM 33 DEB",
        "group": "iridium-33-debris",
        "lat": -2.03473355272366,
        "lon": 62.99939832036585,
        "alt_km": 783.0877214294251,
        "timestamp": "2025-12-22T11:33:20.824576+00:00",
        "meta_object_name": "IRIDIUM 33 DEB",
        "meta_object_id": "1997-051BF",
        "meta_epoch": "2025-12-22T03:17:14.951040",
        "meta_mean_motion": 14.36062316,
        "meta_eccentricity": 0.0013155,
        "meta_inclination": 86.3821,
        "meta_ra_of_asc_node": 63.2732,
        "meta_arg_of_pericenter": 208.0761,
        "meta_mean_anomaly": 169.9907,
        "meta_ephemeris_type": 0,
        "meta_classification_type": "U",
        "meta_norad_cat_id": 33886,
        "meta_element_set_no": 999,
        "meta_rev_at_epoch": 88187,
        "meta_bstar": 0.00017077,
        "meta_mean_motion_dot": 5.16e-06,
        "meta_mean_motion_ddot": 0,
        "tle_line1": "1 33886U 97051BF  25356.13697860  .00000516  00000+0  17077-3 0  9997",
        "tle_line2": "2 33886  86.3821  63.2732 0013155 208.0761 169.9907 14.36062316881875"
      },
      "geometry": {
        "type": "Point",
        "coordinates": [
          62.99939832036585,
          -2.03473355272366
        ]
      }
    },
    {
      "type": "Feature",
      "properties": {
        "norad_id": 33887,
        "name": "IRIDIUM 33 DEB",
        "group": "iridium-33-debris",
        "lat": -24.8450667739641,
        "lon": -2.521156884055204,
        "alt_km": 776.5421334769198,
        "timestamp": "2025-12-22T11:33:20.824586+00:00",
        "meta_object_name": "IRIDIUM 33 DEB",
        "meta_object_id": "1997-051BG",
        "meta_epoch": "2025-12-21T18:06:57.603168",
        "meta_mean_motion": 14.37228506,
        "meta_eccentricity": 0.0005394,
        "meta_inclination": 86.3041,
        "meta_ra_of_asc_node": 359.5069,
        "meta_arg_of_pericenter": 190.9714,
        "meta_mean_anomaly": 346.844,
        "meta_ephemeris_type": 0,
        "meta_classification_type": "U",
        "meta_norad_cat_id": 33887,
        "meta_element_set_no": 999,
        "meta_rev_at_epoch": 88294,
        "meta_bstar": 0.00011881,
        "meta_mean_motion_dot": 3.73e-06,
        "meta_mean_motion_ddot": 0,
        "tle_line1": "1 33887U 97051BG  25355.75483337  .00000373  00000+0  11881-3 0  9995",
        "tle_line2": "2 33887  86.3041 359.5069 0005394 190.9714 346.8440 14.37228506882940"
      },
      "geometry": {
        "type": "Point",
        "coordinates": [
          -2.521156884055204,
          -24.8450667739641
        ]
      }
    },
    {
      "type": "Feature",
      "properties": {
        "norad_id": 33953,
        "name": "IRIDIUM 33 DEB",
        "group": "iridium-33-debris",
        "lat": 73.39050168478566,
        "lon": -142.68951704651047,
        "alt_km": 690.5091623949484,
        "timestamp": "2025-12-22T11:33:20.824597+00:00",
        "meta_object_name": "IRIDIUM 33 DEB",
        "meta_object_id": "1997-051BN",
        "meta_epoch": "2025-12-22T04:44:25.619136",
        "meta_mean_motion": 14.55406947,
        "meta_eccentricity": 0.0017835,
        "meta_inclination": 86.3836,
        "meta_ra_of_asc_node": 49.6744,
        "meta_arg_of_pericenter": 73.9809,
        "meta_mean_anomaly": 345.1929,
        "meta_ephemeris_type": 0,
        "meta_classification_type": "U",
        "meta_norad_cat_id": 33953,
        "meta_element_set_no": 999,
        "meta_rev_at_epoch": 88441,
        "meta_bstar": 0.0010995,
        "meta_mean_motion_dot": 4.805e-05,
        "meta_mean_motion_ddot": 0,
        "tle_line1": "1 33953U 97051BN  25356.19751874  .00004805  00000+0  10995-2 0  9990",
        "tle_line2": "2 33953  86.3836  49.6744 0017835  73.9809 345.1929 14.55406947884416"
      },
      "geometry": {
        "type": "Point",
        "coordinates": [
          -142.68951704651047,
          73.39050168478566
        ]
      }
    },
    {
      "type": "Feature",
      "properties": {
        "norad_id": 33960,
        "name": "IRIDIUM 33 DEB",
        "group": "iridium-33-debris",
        "lat": -62.81758677888627,
        "lon": 112.24843838041033,
        "alt_km": 623.697629651565,
        "timestamp": "2025-12-22T11:33:20.824608+00:00",
        "meta_object_name": "IRIDIUM 33 DEB",
        "meta_object_id": "1997-051BV",
        "meta_epoch": "2025-12-21T20:10:45.329088",
        "meta_mean_motion": 14.85604614,
        "meta_eccentricity": 0.00073,
        "meta_inclination": 86.2546,
        "meta_ra_of_asc_node": 285.222,
        "meta_arg_of_pericenter": 45.5917,
        "meta_mean_anomaly": 13.1513,
        "meta_ephemeris_type": 0,
        "meta_classification_type": "U",
        "meta_norad_cat_id": 33960,
        "meta_element_set_no": 999,
        "meta_rev_at_epoch": 89002,
        "meta_bstar": 0.002534,
        "meta_mean_motion_dot": 0.00022006,
        "meta_mean_motion_ddot": 0,
        "tle_line1": "1 33960U 97051BV  25355.84080242  .00022006  00000+0  25340-2 0  9996",
        "tle_line2": "2 33960  86.2546 285.2220 0007300  45.5917  13.1513 14.85604614890028"
      },
      "geometry": {
        "type": "Point",
        "coordinates": [
          112.24843838041033,
          -62.81758677888627
        ]
      }
    },
    {
      "type": "Feature",
      "properties": {
        "norad_id": 33966,
        "name": "IRIDIUM 33 DEB",
        "group": "iridium-33-debris",
        "lat": 30.26060427578349,
        "lon": 43.956325632671614,
        "alt_km": 728.9809441249135,
        "timestamp": "2025-12-22T11:33:20.824618+00:00",
        "meta_object_name": "IRIDIUM 33 DEB",
        "meta_object_id": "1997-051CB",
        "meta_epoch": "2025-12-21T21:18:13.269312",
        "meta_mean_motion": 14.49628063,
        "meta_eccentricity": 0.0008431,
        "meta_inclination": 86.3913,
        "meta_ra_of_asc_node": 42.1011,
        "meta_arg_of_pericenter": 159.4641,
        "meta_mean_anomaly": 13.9867,
        "meta_ephemeris_type": 0,
        "meta_classification_type": "U",
        "meta_norad_cat_id": 33966,
        "meta_element_set_no": 999,
        "meta_rev_at_epoch": 88574,
        "meta_bstar": 0.00044961,
        "meta_mean_motion_dot": 1.747e-05,
        "meta_mean_motion_ddot": 0,
        "tle_line1": "1 33966U 97051CB  25355.88765358  .00001747  00000+0  44961-3 0  9994",
        "tle_line2": "2 33966  86.3913  42.1011 0008431 159.4641  13.9867 14.49628063885743"
      },
      "geometry": {
        "type": "Point",
        "coordinates": [
          43.956325632671614,
          30.26060427578349
        ]
      }
    },
    {
      "type": "Feature",
      "properties": {
        "norad_id": 34071,
        "name": "IRIDIUM 33 DEB",
        "group": "iridium-33-debris",
        "lat": 85.58525335397472,
        "lon": 137.70213792894103,
        "alt_km": 712.889551455426,
        "timestamp": "2025-12-22T11:33:20.824629+00:00",
        "meta_object_name": "IRIDIUM 33 DEB",
        "meta_object_id": "1997-051CE",
        "meta_epoch": "2025-12-22T02:50:50.639424",
        "meta_mean_motion": 14.49504105,
        "meta_eccentricity": 0.0009918,
        "meta_inclination": 86.3448,
        "meta_ra_of_asc_node": 13.7514,
        "meta_arg_of_pericenter": 82.3168,
        "meta_mean_anomaly": 277.9162,
        "meta_ephemeris_type": 0,
        "meta_classification_type": "U",
        "meta_norad_cat_id": 34071,
        "meta_element_set_no": 999,
        "meta_rev_at_epoch": 88470,
        "meta_bstar": 0.00053057,
        "meta_mean_motion_dot": 2.053e-05,
        "meta_mean_motion_ddot": 0,
        "tle_line1": "1 34071U 97051CE  25356.11864166  .00002053  00000+0  53057-3 0  9993",
        "tle_line2": "2 34071  86.3448  13.7514 0009918  82.3168 277.9162 14.49504105884700"
      },
      "geometry": {
        "type": "Point",
        "coordinates": [
          137.70213792894103,
          85.58525335397472
        ]
      }
    },
    {
      "type": "Feature",
      "properties": {
        "norad_id": 34077,
        "name": "IRIDIUM 33 DEB",
        "group": "iridium-33-debris",
        "lat": 65.38865206909794,
        "lon": -140.71763935602397,
        "alt_km": 672.8078745094081,
        "timestamp": "2025-12-22T11:33:20.824640+00:00",
        "meta_object_name": "IRIDIUM 33 DEB",
        "meta_object_id": "1997-051CL",
        "meta_epoch": "2025-12-22T03:06:20.172096",
        "meta_mean_motion": 14.64936285,
        "meta_eccentricity": 0.0009107,
        "meta_inclination": 86.3848,
        "meta_ra_of_asc_node": 47.3707,
        "meta_arg_of_pericenter": 8.9651,
        "meta_mean_anomaly": 49.6074,
        "meta_ephemeris_type": 0,
        "meta_classification_type": "U",
        "meta_norad_cat_id": 34077,
        "meta_element_set_no": 999,
        "meta_rev_at_epoch": 88470,
        "meta_bstar": 0.0012796,
        "meta_mean_motion_dot": 6.872e-05,
        "meta_mean_motion_ddot": 0,
        "tle_line1": "1 34077U 97051CL  25356.12940014  .00006872  00000+0  12796-2 0  9994",
        "tle_line2": "2 34077  86.3848  47.3707 0009107   8.9651  49.6074 14.64936285884709"
      },
      "geometry": {
        "type": "Point",
        "coordinates": [
          -140.71763935602397,
          65.38865206909794
        ]
      }
    }
  ]
}